NORAD_CAT_ID,OBJECT_NAME,OBJECT_TYPE,EPOCH,MEAN_MOTION,ECCENTRICITY,INCLINATION,RA_OF_ASC_NODE,ARG_OF_PERICENTER,MEAN_ANOMALY,BSTAR,MEAN_MOTION_DOT,MEAN_MOTION_DDOT,TLE_LINE0,TLE_LINE1,TLE_LINE2,SEMIMAJOR_AXIS,PERIOD,APOGEE,PERIGEE,DECAYED
53824.0,STARLINK-4757,PAYLOAD,2023-08-03 02:19:03,15.0882941,0.0001243,53.2159,247.1111,88.4579,271.6556,0.00017071,2.429e-05,0.0,0 STARLINK-4757,1 53824U 22114G   23215.09657388  .00002429  00000-0  17071-3 0  9997,2 53824  53.2159 247.1111 0001243  88.4579 271.6556 15.08829410 48931,6917.913,95.438,540.638,538.918,0.0
53824.0,STARLINK-4757,PAYLOAD,2023-08-03 08:40:36,15.08842653,0.0001191,53.2155,245.9223,88.0006,272.1122,7.166e-05,8.53e-06,0.0,0 STARLINK-4757,1 53824U 22114G   23215.36152892  .00000853  00000-0  71660-4 0  9991,2 53824  53.2155 245.9223 0001191  88.0006 272.1122 15.08842653 48973,6917.872,95.437,540.561,538.913,0.0
53824.0,STARLINK-4757,PAYLOAD,2023-08-04 08:31:22,15.08854366,0.0001262,53.2156,241.4612,85.9671,274.1465,0.00011126,1.484e-05,0.0,0 STARLINK-4757,1 53824U 22114G   23216.35511722  .00001484  00000-0  11126-3 0  9993,2 53824  53.2156 241.4612 0001262  85.9671 274.1465 15.08854366 49124,6917.836,95.437,540.575,538.828,0.0
53824.0,STARLINK-4757,PAYLOAD,2023-08-05 06:46:47,15.08835885,0.0001287,53.2156,237.2989,86.5456,273.5684,-1.4888e-05,-5.25e-06,0.0,0 STARLINK-4757,1 53824U 22114G   23217.28249195 -.00000525  00000-0 -14888-4 0  9994,2 53824  53.2156 237.2989 0001287  86.5456 273.5684 15.08835885 49265,6917.893,95.438,540.648,538.868,0.0
53824.0,STARLINK-4757,PAYLOAD,2023-08-06 09:48:20,15.08839211,0.0001305,53.2161,232.2446,93.1028,267.0113,-6.5577e-05,-1.331e-05,0.0,0 STARLINK-4757,1 53824U 22114G   23218.40857304 -.00001331  00000-0 -65577-4 0  9993,2 53824  53.2161 232.2446 0001305  93.1028 267.0113 15.08839211 49435,6917.883,95.438,540.651,538.845,0.0
53824.0,STARLINK-4757,PAYLOAD,2023-08-07 09:39:05,15.0886193,0.0001367,53.216,227.7835,89.7606,270.3543,0.00027734,4.131e-05,0.0,0 STARLINK-4757,1 53824U 22114G   23219.40215197  .00004131  00000-0  27734-3 0  9993,2 53824  53.2160 227.7835 0001367  89.7606 270.3543 15.08861930 49589,6917.813,95.436,540.624,538.733,0.0
53824.0,STARLINK-4757,PAYLOAD,2023-08-07 23:57:35,15.08842762,0.0001598,53.2157,225.1075,108.1057,252.0109,0.0001507,2.111e-05,0.0,0 STARLINK-4757,1 53824U 22114G   23219.99832584  .00002111  00000-0  15070-3 0  9998,2 53824  53.2157 225.1075 0001598 108.1057 252.0109 15.08842762 49672,6917.872,95.437,540.842,538.631,0.0
53824.0,STARLINK-4757,PAYLOAD,2023-08-08 17:26:50,15.0883206,0.0001152,53.2158,221.8352,84.4224,275.69,1.7281e-05,-1.3e-07,0.0,0 STARLINK-4757,1 53824U 22114G   23220.72697882 -.00000013  00000-0  17281-4 0  9998,2 53824  53.2158 221.8352 0001152  84.4224 275.6900 15.08832060 49784,6917.905,95.438,540.567,538.973,0.0
53824.0,STARLINK-4757,PAYLOAD,2023-08-09 09:20:42,15.08847655,0.0001223,53.2155,218.8616,93.8759,266.2373,-0.00017926,-3.14e-05,0.0,0 STARLINK-4757,1 53824U 22114G   23221.38937786 -.00003140  00000-0 -17926-3 0  9991,2 53824  53.2155 218.8616 0001223  93.8759 266.2373 15.08847655 49883,6917.857,95.437,540.568,538.876,0.0
53824.0,STARLINK-4757,PAYLOAD,2023-08-10 10:46:52,15.08840613,0.0001142,53.2153,214.104,84.2895,275.8228,0.0001008,1.317e-05,0.0,0 STARLINK-4757,1 53824U 22114G   23222.44921306  .00001317  00000-0  10080-3 0  9996,2 53824  53.2153 214.1040 0001142  84.2895 275.8228 15.08840613 50048,6917.879,95.438,540.534,538.953,0.0
53824.0,STARLINK-4757,PAYLOAD,2023-08-10 23:29:57,15.08831391,0.000118,53.215,211.7256,82.2652,277.8474,6.2687e-05,7.1e-06,0.0,0 STARLINK-4757,1 53824U 22114G   23222.97914177  .00000710  00000-0  62687-4 0  9999,2 53824  53.2150 211.7256 0001180  82.2652 277.8474 15.08831391 50125,6917.907,95.438,540.588,538.955,0.0
53824.0,STARLINK-4757,PAYLOAD,2023-08-11 09:02:16,15.08837787,0.0001203,53.2149,209.9413,84.1259,275.987,9.2314e-05,1.182e-05,0.0,0 STARLINK-4757,1 53824U 22114G   23223.37657782  .00001182  00000-0  92314-4 0  9994,2 53824  53.2149 209.9413 0001203  84.1259 275.9870 15.08837787 50187,6917.887,95.438,540.584,538.92,0.0
53824.0,STARLINK-4757,PAYLOAD,2023-08-12 15:14:35,15.08841487,0.0001297,53.2159,204.2904,87.5921,272.522,4.6207e-05,4.48e-06,0.0,0 STARLINK-4757,1 53824U 22114G   23224.63513830  .00000448  00000-0  46207-4 0  9993,2 53824  53.2159 204.2904 0001297  87.5921 272.5220 15.08841487 50372,6917.876,95.437,540.638,538.844,0.0
53824.0,STARLINK-4757,PAYLOAD,2023-08-13 07:08:26,15.08850775,0.0001265,53.2155,201.3168,90.254,269.8597,0.00011536,1.549e-05,0.0,0 STARLINK-4757,1 53824U 22114G   23225.29752817  .00001549  00000-0  11536-3 0  9995,2 53824  53.2155 201.3168 0001265  90.2540 269.8597 15.08850775 50478,6917.847,95.437,540.588,538.837,0.0
53824.0,STARLINK-4757,PAYLOAD,2023-08-14 00:37:42,15.0883299,0.0001515,53.2163,198.046,92.3182,267.7983,-1.743e-05,-5.65e-06,0.0,0 STARLINK-4757,1 53824U 22114G   23226.02618552 -.00000565  00000-0 -17430-4 0  9993,2 53824  53.2163 198.0460 0001515  92.3182 267.7983 15.08832990 50584,6917.902,95.438,540.815,538.719,0.0
53824.0,STARLINK-4757,PAYLOAD,2023-08-14 06:59:15,15.08828471,0.0001347,53.2158,196.8565,88.0999,272.0147,-5.8297e-05,-1.215e-05,0.0,0 STARLINK-4757,1 53824U 22114G   23226.29115041 -.00001215  00000-0 -58297-4 0  9996,2 53824  53.2158 196.8565 0001347  88.0999 272.0147 15.08828471 50626,6917.916,95.438,540.712,538.849,0.0
53824.0,STARLINK-4757,PAYLOAD,2023-08-15 02:03:52,15.08843663,0.0001532,53.2162,193.2894,95.1742,264.9425,-4.202e-05,-9.57e-06,0.0,0 STARLINK-4757,1 53824U 22114G   23227.08602244 -.00000957  00000-0 -42020-4 0  9999,2 53824  53.2162 193.2894 0001532  95.1742 264.9425 15.08843663 50740,6917.869,95.437,540.794,538.674,0.0
53824.0,STARLINK-4757,PAYLOAD,2023-08-16 01:54:39,15.08829586,0.0001201,53.2163,188.8252,65.9619,294.1499,0.00014803,2.068e-05,0.0,0 STARLINK-4757,1 53824U 22114G   23228.07962793  .00002068  00000-0  14803-3 0  9997,2 53824  53.2163 188.8252 0001201  65.9619 294.1499 15.08829586 50890,6917.912,95.438,540.608,538.946,0.0
53824.0,STARLINK-4757,PAYLOAD,2023-08-17 03:20:49,15.08842387,0.0001449,53.2171,184.0681,95.8267,264.289,1.613e-05,-3.1e-07,0.0,0 STARLINK-4757,1 53824U 22114G   23229.13946493 -.00000031  00000-0  16130-4 0  9999,2 53824  53.2171 184.0681 0001449  95.8267 264.2890 15.08842387 51054,6917.873,95.437,540.74,538.736,0.0
53824.0,STARLINK-4757,PAYLOAD,2023-08-18 06:22:22,15.08845133,0.0001406,53.2166,179.0144,87.8173,272.298,3.6381e-05,2.91e-06,0.0,0 STARLINK-4757,1 53824U 22114G   23230.26554270  .00000291  00000-0  36381-4 0  9990,2 53824  53.2166 179.0144 0001406  87.8173 272.2980 15.08845133 51226,6917.865,95.437,540.702,538.757,0.0
53824.0,STARLINK-4757,PAYLOAD,2023-08-19 03:02:23,15.08841179,0.0001422,53.2167,175.1493,92.0494,268.0661,7.5788e-05,9.18e-06,0.0,0 STARLINK-4757,1 53824U 22114G   23231.12666363  .00000918  00000-0  75788-4 0  9993,2 53824  53.2167 175.1493 0001422  92.0494 268.0661 15.08841179 51352,6917.877,95.437,540.726,538.758,0.0
53824.0,STARLINK-4757,PAYLOAD,2023-08-20 02:53:11,15.08833111,0.0001433,53.2176,170.6892,95.1217,264.9938,4.5133e-05,4.3e-06,0.0,0 STARLINK-4757,1 53824U 22114G   23232.12027158  .00000430  00000-0  45133-4 0  9997,2 53824  53.2176 170.6892 0001433  95.1217 264.9938 15.08833111 51500,6917.901,95.438,540.758,538.775,0.0
53824.0,STARLINK-4757,PAYLOAD,2023-08-21 02:43:57,15.08842817,0.0001326,53.2172,166.2299,89.9041,270.2103,9.7198e-05,1.259e-05,0.0,0 STARLINK-4757,1 53824U 22114G   23233.11386568  .00001259  00000-0  97198-4 0  9998,2 53824  53.2172 166.2299 0001326  89.9041 270.2103 15.08842817 51658,6917.872,95.437,540.654,538.819,0.0
53824.0,STARLINK-4757,PAYLOAD,2023-08-22 04:10:09,15.08832934,0.0001316,53.2169,161.4672,83.3453,276.7688,5.6071e-06,-1.99e-06,0.0,0 STARLINK-4757,1 53824U 22114G   23234.17371807 -.00000199  00000-0  56071-5 0  9994,2 53824  53.2169 161.4672 0001316  83.3453 276.7688 15.08832934 51816,6917.902,95.438,540.677,538.857,0.0
53824.0,STARLINK-4757,PAYLOAD,2023-08-23 02:25:32,15.08864068,0.0001292,53.2168,157.3043,83.5495,276.5644,-0.00028624,-4.844e-05,0.0,0 STARLINK-4757,1 53824U 22114G   23235.10107046 -.00004844  00000-0 -28624-3 0  9993,2 53824  53.2168 157.3043 0001292  83.5495 276.5644 15.08864068 51950,6917.807,95.436,540.566,538.778,0.0
53824.0,STARLINK-4757,PAYLOAD,2023-08-23 04:00:56,15.08842696,0.0001291,53.2166,157.0109,90.4757,269.6383,3.1134e-05,2.08e-06,0.0,0 STARLINK-4757,1 53824U 22114G   23235.16731496  .00000208  00000-0  31134-4 0  9990,2 53824  53.2166 157.0109 0001291  90.4757 269.6383 15.08842696 51962,6917.872,95.437,540.63,538.844,0.0
53824.0,STARLINK-4757,PAYLOAD,2023-08-24 03:51:43,15.08834062,0.0001375,53.2165,152.5483,85.8492,274.2657,0.00018501,2.657e-05,0.0,0 STARLINK-4757,1 53824U 22114G   23236.16091777  .00002657  00000-0  18501-3 0  9994,2 53824  53.2165 152.5483 0001375  85.8492 274.2657 15.08834062 52564,6917.899,95.438,540.715,538.812,0.0
53824.0,STARLINK-4757,PAYLOAD,2023-08-25 03:42:29,15.08846319,0.0001429,53.2168,148.0878,91.0726,269.043,6.7902e-05,7.93e-06,0.0,0 STARLINK-4757,1 53824U 22114G   23237.15451275  .00000793  00000-0  67902-4 0  9996,2 53824  53.2168 148.0878 0001429  91.0726 269.0430 15.08846319 52260,6917.861,95.437,540.715,538.738,0.0
53824.0,STARLINK-4757,PAYLOAD,2023-08-26 00:22:30,15.08841784,0.000148,53.2175,144.2198,102.6611,257.4547,3.7638e-06,-2.28e-06,0.0,0 STARLINK-4757,1 53824U 22114G   23238.01563599 -.00000228  00000-0  37638-5 0  9993,2 53824  53.2175 144.2198 0001480 102.6611 257.4547 15.08841784 52395,6917.875,95.437,540.764,538.716,0.0
53824.0,STARLINK-4757,PAYLOAD,2023-08-26 03:33:17,15.08840818,0.0001484,53.2174,143.6262,97.4565,262.6596,-4.2824e-06,-3.56e-06,0.0,0 STARLINK-4757,1 53824U 22114G   23238.14811710 -.00000356  00000-0 -42824-5 0  9994,2 53824  53.2174 143.6262 0001484  97.4565 262.6596 15.08840818 52863,6917.878,95.438,540.77,538.716,0.0
